{
  "type": "FeatureCollection",
  "features": [
    {
      "type": "Feature",
      "properties": {
        "norad_id": 31738,
        "name": "FENGYUN 1C DEB",
        "group": "fengyun-1c-debris",
        "lat": 8.338263242626073,
        "lon": 67.07592027781746,
        "alt_km": 808.1531243926665,
        "timestamp": "2025-12-27T05:29:39.486765+00:00",
        "meta_object_name": "FENGYUN 1C DEB",
        "meta_object_id": "1999-025CEM",
        "meta_epoch": "2025-12-23T21:42:29.765088",
        "meta_mean_motion": 13.85097966,
        "meta_eccentricity": 0.0306503,
        "meta_inclination": 99.3607,
        "meta_ra_of_asc_node": 65.1392,
        "meta_arg_of_pericenter": 70.4545,
        "meta_mean_anomaly": 292.9435,
        "meta_ephemeris_type": 0,
        "meta_classification_type": "U",
        "meta_norad_cat_id": 31738,
        "meta_element_set_no": 999,
        "meta_rev_at_epoch": 62412,
        "meta_bstar": 0.0013333,
        "meta_mean_motion_dot": 2.136e-05,
        "meta_mean_motion_ddot": 0,
        "tle_line1": "1 31738U 99025CEM 25357.90451117  .00002136  00000+0  13333-2 0  9993",
        "tle_line2": "2 31738  99.3607  65.1392 0306503  70.4545 292.9435 13.85097966624129"
      },
      "geometry": {
        "type": "Point",
        "coordinates": [
          67.07592027781746,
          8.338263242626073
        ]
      }
    },
    {
      "type": "Feature",
      "properties": {
        "norad_id": 31739,
        "name": "FENGYUN 1C DEB",
        "group": "fengyun-1c-debris",
        "lat": -80.50553609819504,
        "lon": 169.38115884801306,
        "alt_km": 894.5761422300775,
        "timestamp": "2025-12-27T05:29:39.486775+00:00",
        "meta_object_name": "FENGYUN 1C DEB",
        "meta_object_id": "1999-025CEN",
        "meta_epoch": "2025-12-22T21:01:48.237600",
        "meta_mean_motion": 14.19222249,
        "meta_eccentricity": 0.012814,
        "meta_inclination": 98.7461,
        "meta_ra_of_asc_node": 52.0797,
        "meta_arg_of_pericenter": 49.2852,
        "meta_mean_anomaly": 311.9371,
        "meta_ephemeris_type": 0,
        "meta_classification_type": "U",
        "meta_norad_cat_id": 31739,
        "meta_element_set_no": 999,
        "meta_rev_at_epoch": 95630,
        "meta_bstar": 9.2432e-05,
        "meta_mean_motion_dot": 1.67e-06,
        "meta_mean_motion_ddot": 0,
        "tle_line1": "1 31739U 99025CEN 25356.87625275  .00000167  00000+0  92432-4 0  9998",
        "tle_line2": "2 31739  98.7461  52.0797 0128140  49.2852 311.9371 14.19222249956300"
      },
      "geometry": {
        "type": "Point",
        "coordinates": [
          169.38115884801306,
          -80.50553609819504
        ]
      }
    },
    {
      "type": "Feature",
      "properties": {
        "norad_id": 31740,
        "name": "FENGYUN 1C DEB",
        "group": "fengyun-1c-debris",
        "lat": -18.306837381629006,
        "lon": 178.02562933638802,
        "alt_km": 743.6443393564332,
        "timestamp": "2025-12-27T05:29:39.486785+00:00",
        "meta_object_name": "FENGYUN 1C DEB",
        "meta_object_id": "1999-025CEP",
        "meta_epoch": "2025-12-24T23:19:56.739072",
        "meta_mean_motion": 14.42257386,
        "meta_eccentricity": 0.00243017,
        "meta_inclination": 99.8206,
        "meta_ra_of_asc_node": 172.1465,
        "meta_arg_of_pericenter": 32.9385,
        "meta_mean_anomaly": 117.9061,
        "meta_ephemeris_type": 0,
        "meta_classification_type": "U",
        "meta_norad_cat_id": 31740,
        "meta_element_set_no": 999,
        "meta_rev_at_epoch": 65251,
        "meta_bstar": 0.0013330711,
        "meta_mean_motion_dot": 4.359e-05,
        "meta_mean_motion_ddot": 0,
        "tle_line1": "1 31740U 99025CEP 25358.97218448  .00004359  00000+0  13331-2 0  9999",
        "tle_line2": "2 31740  99.8206 172.1465 0024301  32.9385 117.9061 14.42257386652513"
      },
      "geometry": {
        "type": "Point",
        "coordinates": [
          178.02562933638802,
          -18.306837381629006
        ]
      }
    },
    {
      "type": "Feature",
      "properties": {
        "norad_id": 31742,
        "name": "FENGYUN 1C DEB",
        "group": "fengyun-1c-debris",
        "lat": -40.82169805898116,
        "lon": -130.56979911024618,
        "alt_km": 719.4537869954374,
        "timestamp": "2025-12-27T05:29:39.486795+00:00",
        "meta_object_name": "FENGYUN 1C DEB",
        "meta_object_id": "1999-025CER",
        "meta_epoch": "2025-12-25T01:58:59.652768",
        "meta_mean_motion": 14.39845332,
        "meta_eccentricity": 0.00759259,
        "meta_inclination": 98.9186,
        "meta_ra_of_asc_node": 219.4004,
        "meta_arg_of_pericenter": 292.9263,
        "meta_mean_anomaly": 66.3923,
        "meta_ephemeris_type": 0,
        "meta_classification_type": "U",
        "meta_norad_cat_id": 31742,
        "meta_element_set_no": 999,
        "meta_rev_at_epoch": 96827,
        "meta_bstar": 0.00070014555,
        "meta_mean_motion_dot": 2.225e-05,
        "meta_mean_motion_ddot": 0,
        "tle_line1": "1 31742U 99025CER 25359.08263487  .00002225  00000+0  70015-3 0  9990",
        "tle_line2": "2 31742  98.9186 219.4004 0075925 292.9263  66.3923 14.39845332968274"
      },
      "geometry": {
        "type": "Point",
        "coordinates": [
          -130.56979911024618,
          -40.82169805898116
        ]
      }
    },
    {
      "type": "Feature",
      "properties": {
        "norad_id": 31743,
        "name": "FENGYUN 1C DEB",
        "group": "fengyun-1c-debris",
        "lat": -39.784735136002865,
        "lon": -62.39320240693369,
        "alt_km": 815.2413451305756,
        "timestamp": "2025-12-27T05:29:39.486805+00:00",
        "meta_object_name": "FENGYUN 1C DEB",
        "meta_object_id": "1999-025CES",
        "meta_epoch": "2025-12-26T06:55:42.498048",
        "meta_mean_motion": 14.31388211,
        "meta_eccentricity": 0.0037315,
        "meta_inclination": 99.1417,
        "meta_ra_of_asc_node": 288.9119,
        "meta_arg_of_pericenter": 177.9699,
        "meta_mean_anomaly": 339.1169,
        "meta_ephemeris_type": 0,
        "meta_classification_type": "U",
        "meta_norad_cat_id": 31743,
        "meta_element_set_no": 999,
        "meta_rev_at_epoch": 95834,
        "meta_bstar": 0.0013637,
        "meta_mean_motion_dot": 3.596e-05,
        "meta_mean_motion_ddot": 0,
        "tle_line1": "1 31743U 99025CES 25360.28868632  .00003596  00000+0  13637-2 0  9996",
        "tle_line2": "2 31743  99.1417 288.9119 0037315 177.9699 339.1169 14.31388211958349"
      },
      "geometry": {
        "type": "Point",
        "coordinates": [
          -62.39320240693369,
          -39.784735136002865
        ]
      }
    },
    {
      "type": "Feature",
      "properties": {
        "norad_id": 31744,
        "name": "FENGYUN 1C DEB",
        "group": "fengyun-1c-debris",
        "lat": -43.62567270501689,
        "lon": -76.10786833297814,
        "alt_km": 1012.4435776180317,
        "timestamp": "2025-12-27T05:29:39.486815+00:00",
        "meta_object_name": "FENGYUN 1C DEB",
        "meta_object_id": "1999-025CET",
        "meta_epoch": "2025-12-17T13:54:12.794400",
        "meta_mean_motion": 14.16604274,
        "meta_eccentricity": 0.03151073,
        "meta_inclination": 99.3037,
        "meta_ra_of_asc_node": 102.7793,
        "meta_arg_of_pericenter": 30.7507,
        "meta_mean_anomaly": 331.1716,
        "meta_ephemeris_type": 0,
        "meta_classification_type": "U",
        "meta_norad_cat_id": 31744,
        "meta_element_set_no": 999,
        "meta_rev_at_epoch": 94683,
        "meta_bstar": 0.00098574439,
        "meta_mean_motion_dot": 3.146e-05,
        "meta_mean_motion_ddot": 0,
        "tle_line1": "1 31744U 99025CET 25351.57931475  .00003146  00000+0  98574-3 0  9990",
        "tle_line2": "2 31744  99.3037 102.7793 0315107  30.7507 331.1716 14.16604274946837"
      },
      "geometry": {
        "type": "Point",
        "coordinates": [
          -76.10786833297814,
          -43.62567270501689
        ]
      }
    },
    {
      "type": "Feature",
      "properties": {
        "norad_id": 31746,
        "name": "FENGYUN 1C DEB",
        "group": "fengyun-1c-debris",
        "lat": -28.267116855352203,
        "lon": -59.92477434106104,
        "alt_km": 631.8290565623274,
        "timestamp": "2025-12-27T05:29:39.486826+00:00",
        "meta_object_name": "FENGYUN 1C DEB",
        "meta_object_id": "1999-025CEV",
        "meta_epoch": "2025-12-22T07:30:54.832032",
        "meta_mean_motion": 14.77180298,
        "meta_eccentricity": 0.00226914,
        "meta_inclination": 98.5896,
        "meta_ra_of_asc_node": 119.5049,
        "meta_arg_of_pericenter": 179.7871,
        "meta_mean_anomaly": 180.3351,
        "meta_ephemeris_type": 0,
        "meta_classification_type": "U",
        "meta_norad_cat_id": 31746,
        "meta_element_set_no": 999,
        "meta_rev_at_epoch": 97169,
        "meta_bstar": 0.0037623733,
        "meta_mean_motion_dot": 0.00026782,
        "meta_mean_motion_ddot": 0,
        "tle_line1": "1 31746U 99025CEV 25356.31313463  .00026782  00000+0  37624-2 0  9999",
        "tle_line2": "2 31746  98.5896 119.5049 0022691 179.7871 180.3351 14.77180298971697"
      },
      "geometry": {
        "type": "Point",
        "coordinates": [
          -59.92477434106104,
          -28.267116855352203
        ]
      }
    }
  ]
}